#cP2019  3 19  0  0  0.00000000      96 TRACK IGb14 FIT GRGS
## 2045 172800.00000000   900.00000000 58561 0.0000000000000
+   77   E01E02E03E04E05E07E08E09E11E12E13E15E18E19E21E24E25
+        E26E27E30E31E33E36R01R02R03R04R05R07R08R09R10R11R13
+        R14R15R16R17R18R19R20R21R22R23R24G01G02G03G04G05G06
+        G07G08G09G10G11G12G13G14G15G16G17G19G20G21G22G23G24
+        G25G26G27G28G29G30G31G32G18  0  0  0  0  0  0  0  0
++         5  5  6  6  6  6  6  6  5  5  5  5  5  5  5  5  5
++         5  5  5  5  7  5  6  6  6  6  6  6  6  6  6  5  6
++         6  5  6  6  6  6  6  6  6  8  7  5  5  6  7  5  5
++         5  5  5  5  5  5  6  5  6  4  5  5  5  5  5  5  5
++         5  4  5  5  5  5  5  5  5  0  0  0  0  0  0  0  0
%c M  cc GPS ccc cccc cccc cccc cccc ccccc ccccc ccccc ccccc
%c cc cc ccc ccc cccc cccc cccc cccc ccccc ccccc ccccc ccccc
%f  0.0000000  0.000000000  0.00000000000  0.000000000000000
%f  0.0000000  0.000000000  0.00000000000  0.000000000000000
%i    0    0    0    0      0      0      0      0         0
%i    0    0    0    0      0      0      0      0         0
/* CNES/CLS/GRGS - TOULOUSE,FRANCE - Contact : igs-ac@cls.fr
/* PCV:IGS14_2035 OL/AL:FES2012  NONE     NN ORB:CoN CLK:CoN
/* CCCCCCCCCCCCCCCCCCCCCCCCCCCCCCCCCCCCCCCCCCCCCCCCCCCCCCCCC
/* CCCCCCCCCCCCCCCCCCCCCCCCCCCCCCCCCCCCCCCCCCCCCCCCCCCCCCCCC
*  2019  3 19  1 15  0.00000000
PE01  -8373.842022 -21924.061622  18034.772921   -565.055339
PE02   8413.915079  21872.298800 -18081.092804     52.087145
PE03  13809.342856  12342.870839  23088.894826   -145.425787
PE04 -27255.630805   1496.064419 -11442.087239   -243.213762
PE05  -7814.724916  19037.019242  21279.226465     89.282932
PE07  24785.362558 -14566.388037  -7024.731678   -151.802062
PE08  27238.865014  -1842.289237  11428.196696   6386.641036
PE09 -24675.519919  14752.991547   7082.572455   6496.075191
PE11 -15316.385893   8183.416080 -23963.467181   5714.769458
PE12 -25066.173733  -9454.769319 -12550.913790   6403.383262
PE13  15399.018737  -8034.619899  23981.907580    384.400844
PE15  25066.914805   9079.661136  12883.752748    916.728827
PE18  25529.409942  -2784.130415   5860.136806   -596.037598
PE19 -11818.548084 -13281.114772 -23662.118857     -7.649551
PE21   4490.776448 -29254.392335    481.195718   -524.750860
PE24 -14605.237040  19482.957181  16799.479534   6178.227332
PE25  -4514.537769  29250.111596   -444.160982   1861.323368
PE26  -3009.429552 -20639.596742  21012.262181   4782.764673
PE27  14618.660094 -19189.787622 -17159.398784    507.758052
PE30  16271.565931   1758.247006 -24678.010294   5021.853067
PE31 -16157.632030  -2117.315440  24711.297877    879.611878
PE33 -20078.917670 -20949.550472   5822.039814    847.948790
PE36   3347.559418  20516.845673 -21063.719366    734.854929
PR01 -17992.468646   1389.008282 -18032.420277     41.032404
PR02 -21490.230982  13688.914203    267.941599    359.439700
PR03 -10922.088537  16191.360333  16422.464066     -7.516680
PR04   6420.047269   8913.874247  23038.440285    299.097443
PR05  19189.952420  -2996.829096  16557.795011     24.337647
PR07  10621.929003 -16114.946657 -16663.632785    -60.147021
PR08  -5672.153897  -9362.520025 -22987.454975     18.601217
PR09   8595.613236 -14917.312145 -18786.317843     59.821511
PR10   2095.724332 -24662.568776  -6029.658959     45.394060
PR11  -6636.428892 -21439.512580  12093.177316    -60.134151
PR13  -8628.735424  13654.361332  19719.151775    -21.404762
PR14  -1895.398488  24752.749024   5888.784577     37.047100
PR15   6166.653049  21993.106670 -11333.758838    100.719935
PR16  11012.742312   6203.621820 -22164.234788     10.687488
PR17    -88.558930  11718.721610 -22638.856310    213.212554
PR18  15797.571895  15141.952400 -13144.752593     37.081889
PR19  22791.919656  10919.240747   3486.468043     48.513713
PR20  16352.931266   -926.991099  19586.806743   -372.184845
PR21   -586.373847 -11924.943025  22549.461213    -37.337987
PR22 -17420.033572 -14954.834349  10982.880665    -10.111607
PR23 -22754.798255  -7834.251642  -8446.292854    216.186138
PR24 -15095.158650   2383.810663 -20435.359871   -178.351065
PG01  18077.735982   6734.336078  18222.965867   -183.566578
PG02 -14278.393414 -22504.254802    749.861666   -167.012527
PG03  17695.793423  -3590.761966  19415.652768    186.755798
PG04  17737.277748 -10964.335514 -16442.978232    135.984448
PG05  -7648.407591 -15831.084710 -19967.184419      1.180824
PG06  -5361.731671 -23710.158151  10708.134557    251.929553
PG07  12838.470604  -8176.385047 -21503.394518     12.259275
PG08  24053.567890   6250.188834  -9608.325285   -136.675811
PG09  22028.565356  -8825.232644 -11986.071057    443.064498
PG10 -10442.215352  23961.320791   4145.733553     94.071736
PG11  23352.055634   6910.960466   9782.229581   -642.603576
PG12 -17008.645480   1355.159272  20092.938419    258.950514
PG13 -17828.728988 -12707.553756 -15179.415061    -71.197236
PG14   2315.568527  15459.625954  21799.922534    -87.831497
PG15 -25330.407715  -3709.169507  -8051.855294   -322.863722
PG16   7161.091683  14395.431635 -21228.359541    -26.365422
PG17   8078.363579 -13903.555965  21530.826980     25.522955
PG19  -1399.451348 -14738.483118  21749.859604   -340.738978
PG20 -14303.885314  21412.759015  -6302.819155    523.220708
PG21  -8937.002352  13208.103496 -20458.948988   -229.805503
PG22  15464.062812   4752.267967  21297.590086   -666.955570
PG23  26724.786054  -1208.453796   -990.592691   -193.525960
PG24 -19535.350073  -9824.506729  15144.753183    -63.582692
PG25 -18333.731723  13569.412584  13182.091474   -734.854933
PG26   -186.940686  22078.490505 -14649.085201    152.872223
PG27  16005.236502  11909.971269 -17776.233704    -89.103196
PG28  12823.937428 -23038.998223   4179.822935    766.509910
PG29 -25126.505594   3595.502699  -7835.941309    246.158928
PG30   4866.717196 -18921.025099 -17895.812631    -70.891906
PG31   5441.870735  23987.342917   9420.410432     51.198482
PG32  -4350.485495  15125.055947  21429.898708   -174.439017
PG18  18787.861385  15253.982905  10619.572790     36.103919
EOF
